SARSAT 7 (NOAA 15)      
1 25338U 98030A   16145.57232122  .00000067  00000-0  47342-4 0  9999
2 25338  98.7828 149.6745 0009461 252.8338 107.1806 14.25727036937629
GPS BIIR-07             
1 26690U 01004A   16145.44653487  .00000063  00000-0  00000+0 0  9994
2 26690  53.0017 174.0722 0173803 252.2590 280.7963  2.00561607112210
METEOSAT-8 (MSG-1)      
1 27509U 02040B   16145.21543459  .00000020  00000-0  00000+0 0  9990
2 27509   4.1622  59.8369 0000618 219.4572  44.0481  1.00274524 50398
GPS BIIR-08             
1 27663U 03005A   16145.55824127 -.00000058  00000-0  00000+0 0  9996
2 27663  56.7727   0.0076 0086685  20.4611 324.1135  2.00553944 97580
INSAT 3A                
1 27714U 03013A   16145.47358564 -.00000257  00000-0  00000+0 0  9991
2 27714   0.0672 269.1562 0007777 161.2982  76.0439  1.00271528 48092
GPS BIIR-11             
1 28190U 04009A   16145.50581699 -.00000039  00000-0  00000+0 0  9995
2 28190  55.7769  61.3371 0106245  43.4049  54.6278  2.00570356 89258
GPS BIIR-12             
1 28361U 04023A   16145.57267818  .00000012  00000-0  00000+0 0  9992
2 28361  54.2027 235.8116 0110484 213.4521 206.9633  2.00563247 87344
GPS BIIR-13             
1 28474U 04045A   16145.34877678  .00000028  00000-0  00000+0 0  9994
2 28474  54.0435 113.6905 0158895 239.1347  20.9391  2.00550790 84697
SARSAT 10 (NOAA 18)     
1 28654U 05018A   16145.54170697  .00000007  00000-0  29296-4 0  9994
2 28654  99.1973 151.8582 0015424  82.1444 278.1477 14.12285630567392
GPS BIIR-14M            
1 28874U 05038A   16145.54963062 -.00000042  00000-0  00000+0 0  9993
2 28874  55.9427  58.5399 0111864 250.0364 265.7387  2.00561634 78104
MSG-2                   
1 28912U 05049B   16144.72214065  .00000063  00000-0  00000+0 0  9991
2 28912   1.4550  67.8363 0000515 243.9879 199.1636  1.00269074 38213
GOES 13                 
1 29155U 06018A   16144.53708518 -.00000249  00000-0  00000+0 0  9995
2 29155   0.2435 269.6182 0006239 166.7727 283.6923  1.00278278 36656
SARSAT 11 (METOP-A)     
1 29499U 06044A   16144.49402683  .00000036  00000-0  36581-4 0  9995
2 29499  98.6975 203.8238 0001257 155.2552 321.8495 14.21491297497771
GPS BIIR-16M            
1 29601U 06052A   16144.39275359 -.00000060  00000-0  00000+0 0  9996
2 29601  56.7435 358.9771 0059757  41.1674 319.3318  2.00557843 69711
GPS BIIR-17M            
1 32260U 07047A   16144.70908709  .00000014  00000-0  00000+0 0  9991
2 32260  53.3313 232.5380 0080195  26.2546 334.2113  2.00572381 63109
GPS BIIR-18M            
1 32384U 07062A   16144.86462995 -.00000044  00000-0  00000+0 0  9998
2 32384  55.9979  59.1239 0010563 333.1997 277.7099  2.00576246 61836
SARSAT 12 (NOAA 19)     
1 33591U 09005A   16145.49224848  .00000068  00000-0  61767-4 0  9998
2 33591  99.0382 102.0733 0012975 287.7380  72.2374 14.12074649375793
GOES 14                 
1 35491U 09033A   16144.61976456 -.00000089  00000-0  00000+0 0  9994
2 35491   0.2011 100.8525 0003060 102.7587 156.3871  1.00271235 25298
GOES 15                 
1 36411U 10008A   16144.70255176  .00000086  00000-0  00000+0 0  9996
2 36411   0.1356 104.3892 0002258 335.7563 279.8928  1.00284779 22825
ELEKTRO-L 1             
1 37344U 11001A   16144.67254822 -.00000095  00000-0  00000+0 0  9990
2 37344   1.6610  79.5618 0003333 228.4580 251.6059  1.00275261 19602
GLONASS-K 1             
1 37372U 11009A   16144.46480145 -.00000011  00000-0  00000+0 0  9993
2 37372  65.2162  77.8309 0007900 246.4675 205.3193  2.13102784 40746
GPS BIIF-2              
1 37753U 11036A   16145.56783881  .00000035  00000-0  00000+0 0  9996
2 37753  55.2601 116.2856 0053713  24.1932 161.5718  2.00566842 35544
LUCH 5A                 
1 37951U 11074B   16145.24924373 -.00000042  00000-0  00000+0 0  9995
2 37951   1.7524 214.9241 0003751 213.6722  70.4032  1.00271967 16329
MSG-3                   
1 38552U 12035B   16144.33007895 -.00000003  00000-0  00000+0 0  9998
2 38552   0.7449  86.6338 0001401 176.4825  96.8794  1.00276840 14356
SARSAT 13 (METOP-B)     
1 38771U 12049A   16144.81083957  .00000031  00000-0  34335-4 0  9995
2 38771  98.7316 204.2877 0000126  31.1904  79.2958 14.21485224190956
GPS BIIF-3              
1 38833U 12053A   16145.29785176 -.00000037  00000-0  00000+0 0  9998
2 38833  54.4057 294.5925 0043327  21.2023 338.9558  2.00569962 26623
GSAT0103 (GALILEO-FM3)  
1 38857U 12055A   16144.17810197  .00000053  00000-0  00000+0 0  9991
2 38857  54.9356 202.8415 0004949 233.4986 126.5571  1.70473790 22489
GSAT0104 (GALILEO-FM4)  
1 38858U 12055B   16140.00645861  .00000029  00000-0  00000+0 0  9997
2 38858  54.9363 202.9560 0003824 231.6342 128.4178  1.70473909 22359
GPS BIIF-4              
1 39166U 13023A   16145.15811763 -.00000047  00000-0  00000+0 0  9994
2 39166  55.6527  55.6975 0036120  12.4799 347.6296  2.00567693 22142
INSAT-3D                
1 39216U 13038B   16144.10215048 -.00000155  00000-0  00000+0 0  9994
2 39216   0.0632 107.1042 0000942 302.1601 310.7565  1.00271811 10433
GPS BIIF-5              
1 39533U 14008A   16145.15539982 -.00000040  00000-0  00000+0 0  9999
2 39533  54.5610 299.8293 0020781 178.5974 181.3888  2.00571932 16505
LUCH 5V                 
1 39727U 14023A   16144.58493083 -.00000267  00000-0  00000+0 0  9999
2 39727   3.4481 299.9782 0002100 132.8412 114.0356  1.00267985525651
GPS BIIF-6              
1 39741U 14026A   16144.93576312  .00000030  00000-0  00000+0 0  9991
2 39741  55.2501 115.8276 0006655 276.0045  83.8886  2.00560957 14785
GPS BIIF-7              
1 40105U 14045A   16145.52516497  .00000013  00000-0  00000+0 0  9993
2 40105  54.7220 235.5113 0004231 149.3452 210.7386  2.00574790 13241
GSAT0201                
1 40128U 14050A   16144.35702771 -.00000066  00000-0  00000+0 0  9995
2 40128  50.0687  60.8545 1591746  49.7244 323.1226  1.85518606 12040
GSAT0202                
1 40129U 14050B   16145.16501564 -.00000061  00000-0  00000+0 0  9998
2 40129  50.1257  59.8043 1592228  50.8671 322.2296  1.85519161 12256
GPS BIIF-8              
1 40294U 14068A   16145.40017983  .00000067  00000-0  00000+0 0  9999
2 40294  54.9653 175.9586 0004582 259.1238 100.8936  2.00560542 11466
GLONASS-K 2             
1 40315U 14075A   16145.13458862 -.00000023  00000-0  00000+0 0  9999
2 40315  64.6344 318.9412 0015957 233.2496 134.2143  2.13101523 11521
GPS BIIF-9              
1 40534U 15013A   16145.04210538 -.00000062  00000-0  00000+0 0  9994
2 40534  55.0363 355.5265 0010151 357.3082   2.7285  2.00553704  8522
GSAT0203                
1 40544U 15017A   16143.33117589 -.00000026  00000-0  00000+0 0  9991
2 40544  55.3245  83.0284 0003074 261.8615  98.0628  1.70475195  7156
GSAT0204                
1 40545U 15017B   16143.70121061 -.00000025  00000-0  00000+0 0  9992
2 40545  55.3313  83.0272 0000753 243.9960 115.9569  1.70475423  7174
GPS BIIF-10             
1 40730U 15033A   16145.19687320 -.00000047  00000-0  00000+0 0  9990
2 40730  55.1893  55.5430 0019667 293.5699  66.2442  2.00561357  6280
GSAT 0205               
1 40889U 15045A   16141.00400168 -.00000052  00000-0  00000-0 0  9994
2 40889  57.2727 322.8101 0003815  20.9542 339.0630  1.70474661  4281
GSAT 0206               
1 40890U 15045B   16142.39719345 -.00000049  00000-0  00000+0 0  9994
2 40890  57.2744 322.7721 0002390  30.7299 329.2773  1.70474558  4323
GPS BIIF-11             
1 41019U 15062A   16145.25049187  .00000067  00000-0  00000+0 0  9994
2 41019  54.9787 175.7338 0015615 211.7165 148.2587  2.00562272  4108
GSAT 0209               
1 41174U 15079A   16140.51473044  .00000034  00000-0  00000-0 0  9996
2 41174  54.9465 202.6275 0005444 274.1231 263.7778  1.70474134  2613
GSAT 0208               
1 41175U 15079B   16141.70277767  .00000042  00000-0  00000+0 0  9991
2 41175  54.9471 202.5927 0004721 270.2809 141.8045  1.70474195  2631
GPS BIIF-12             
1 41328U 16007A   16145.33962275  .00000013  00000-0  00000+0 0  9999
2 41328  54.9858 235.5963 0004847 246.6434 113.3635  2.00572543  2174
